start=new Date('2022-01-01T00:00:00.000Z').valueOf();
sats=[{"INCLINATION":"53.0564","SITE":"AFETR","REF_FRAME":"TEME","ARG_OF_PERICENTER":"65.8435","OBJECT_TYPE":"PAYLOAD","CENTER_NAME":"EARTH","PERIAPSIS":"546.187","RA_OF_ASC_NODE":"21.5621","MEAN_MOTION":"15.06405871","FILE":"3255242","RCS_SIZE":"LARGE","ECCENTRICITY":"0.00014560","MEAN_MOTION_DDOT":"0.0000000000000","CLASSIFICATION_TYPE":"U","EPHEMERIS_TYPE":"0","ELEMENT_SET_NO":"999","OBJECT_ID":"2020-062AX","COUNTRY_CODE":"US","OBJECT_NAME":"STARLINK-1670","APOAPSIS":"548.204","NORAD_CAT_ID":"46370","DECAY_DATE":null,"LAUNCH_DATE":"2020-09-03","MEAN_MOTION_DOT":"-0.00001605","TLE_LINE2":"2 46370  53.0564  21.5621 0001456  65.8435 294.2706 15.06405871 74108","MEAN_ELEMENT_THEORY":"SGP4","EPOCH":"2021-12-31T11:17:28.587264","TIME_SYSTEM":"UTC","PERIOD":"95.592","TLE_LINE1":"1 46370U 20062AX  21365.47046976 -.00001605  00000-0 -88839-4 0  9994","GP_ID":"192820172","BSTAR":"-0.00008883900000","SEMIMAJOR_AXIS":"6925.331","REV_AT_EPOCH":"7410","MEAN_ANOMALY":"294.2706"},{"EPHEMERIS_TYPE":"0","FILE":"3255242","MEAN_MOTION":"15.06397938","CLASSIFICATION_TYPE":"U","MEAN_MOTION_DDOT":"0.0000000000000","ECCENTRICITY":"0.00013740","RCS_SIZE":"LARGE","CENTER_NAME":"EARTH","PERIAPSIS":"546.268","RA_OF_ASC_NODE":"21.2874","SITE":"AFETR","INCLINATION":"53.0542","OBJECT_TYPE":"PAYLOAD","ARG_OF_PERICENTER":"82.8791","REF_FRAME":"TEME","SEMIMAJOR_AXIS":"6925.355","GP_ID":"192818933","TLE_LINE1":"1 46371U 20062AY  21365.52944908 -.00001594  00000-0 -88167-4 0  9994","BSTAR":"-0.00008816700000","PERIOD":"95.592","MEAN_ANOMALY":"277.2355","REV_AT_EPOCH":"7411","EPOCH":"2021-12-31T12:42:24.400512","TIME_SYSTEM":"UTC","NORAD_CAT_ID":"46371","MEAN_ELEMENT_THEORY":"SGP4","TLE_LINE2":"2 46371  53.0542  21.2874 0001374  82.8791 277.2355 15.06397938 74111","DECAY_DATE":null,"LAUNCH_DATE":"2020-09-03","MEAN_MOTION_DOT":"-0.00001594","COUNTRY_CODE":"US","OBJECT_ID":"2020-062AY","ELEMENT_SET_NO":"999","OBJECT_NAME":"STARLINK-1688","APOAPSIS":"548.171"},{"LAUNCH_DATE":"2020-09-03","DECAY_DATE":null,"MEAN_MOTION_DOT":"-0.00000900","MEAN_ELEMENT_THEORY":"SGP4","TLE_LINE2":"2 46372  53.0549  41.5386 0001322  83.6259 276.4881 15.06387360 73823","NORAD_CAT_ID":"46372","OBJECT_NAME":"STARLINK-1689","APOAPSIS":"548.168","ELEMENT_SET_NO":"999","OBJECT_ID":"2020-062AZ","COUNTRY_CODE":"US","REV_AT_EPOCH":"7382","MEAN_ANOMALY":"276.4881","PERIOD":"95.593","TLE_LINE1":"1 46372U 20062AZ  21365.47232430 -.00000900  00000-0 -41524-4 0  9995","GP_ID":"192819183","BSTAR":"-0.00004152400000","SEMIMAJOR_AXIS":"6925.387","TIME_SYSTEM":"UTC","EPOCH":"2021-12-31T11:20:08.819520","RA_OF_ASC_NODE":"41.5386","PERIAPSIS":"546.337","CENTER_NAME":"EARTH","ARG_OF_PERICENTER":"83.6259","REF_FRAME":"TEME","OBJECT_TYPE":"PAYLOAD","INCLINATION":"53.0549","SITE":"AFETR","EPHEMERIS_TYPE":"0","RCS_SIZE":"LARGE","MEAN_MOTION_DDOT":"0.0000000000000","ECCENTRICITY":"0.00013220","CLASSIFICATION_TYPE":"U","MEAN_MOTION":"15.06387360","FILE":"3255242"},{"OBJECT_NAME":"STARLINK-1711","APOAPSIS":"549.007","COUNTRY_CODE":"US","OBJECT_ID":"2020-062BB","ELEMENT_SET_NO":"999","TLE_LINE2":"2 46374  53.0550 331.7844 0002583 157.9591 202.1510 15.06398573 74794","MEAN_ELEMENT_THEORY":"SGP4","DECAY_DATE":null,"LAUNCH_DATE":"2020-09-03","MEAN_MOTION_DOT":"0.00003147","NORAD_CAT_ID":"46374","TIME_SYSTEM":"UTC","EPOCH":"2021-12-31T10:04:30.250848","MEAN_ANOMALY":"202.1510","REV_AT_EPOCH":"7479","SEMIMAJOR_AXIS":"6925.353","GP_ID":"192819434","TLE_LINE1":"1 46374U 20062BB  21365.41979457  .00003147  00000-0  23008-3 0  9998","BSTAR":"0.00023008000000","PERIOD":"95.592","OBJECT_TYPE":"PAYLOAD","REF_FRAME":"TEME","ARG_OF_PERICENTER":"157.9591","SITE":"AFETR","INCLINATION":"53.0550","RA_OF_ASC_NODE":"331.7844","PERIAPSIS":"545.429","CENTER_NAME":"EARTH","CLASSIFICATION_TYPE":"U","ECCENTRICITY":"0.00025830","MEAN_MOTION_DDOT":"0.0000000000000","RCS_SIZE":"LARGE","FILE":"3255242","MEAN_MOTION":"15.06398573","EPHEMERIS_TYPE":"0"},{"MEAN_ANOMALY":"304.7873","REV_AT_EPOCH":"7445","PERIOD":"95.593","SEMIMAJOR_AXIS":"6925.380","TLE_LINE1":"1 46375U 20062BC  21365.50042456 -.00001847  00000-0 -10515-3 0  9995","BSTAR":"-0.00010515000000","GP_ID":"192819672","TIME_SYSTEM":"UTC","EPOCH":"2021-12-31T12:00:36.681984","DECAY_DATE":null,"MEAN_MOTION_DOT":"-0.00001847","LAUNCH_DATE":"2020-09-03","MEAN_ELEMENT_THEORY":"SGP4","TLE_LINE2":"2 46375  53.0546 356.4126 0001920  55.3297 304.7873 15.06389620 74452","NORAD_CAT_ID":"46375","OBJECT_NAME":"STARLINK-1724","APOAPSIS":"548.575","ELEMENT_SET_NO":"999","COUNTRY_CODE":"US","OBJECT_ID":"2020-062BC","EPHEMERIS_TYPE":"0","MEAN_MOTION_DDOT":"0.0000000000000","ECCENTRICITY":"0.00019200","RCS_SIZE":"LARGE","CLASSIFICATION_TYPE":"U","MEAN_MOTION":"15.06389620","FILE":"3255242","PERIAPSIS":"545.916","RA_OF_ASC_NODE":"356.4126","CENTER_NAME":"EARTH","ARG_OF_PERICENTER":"55.3297","REF_FRAME":"TEME","OBJECT_TYPE":"PAYLOAD","INCLINATION":"53.0546","SITE":"AFETR"},{"INCLINATION":"53.0545","SITE":"AFETR","REF_FRAME":"TEME","ARG_OF_PERICENTER":"59.9871","OBJECT_TYPE":"PAYLOAD","CENTER_NAME":"EARTH","PERIAPSIS":"545.992","RA_OF_ASC_NODE":"356.9444","MEAN_MOTION":"15.06398834","FILE":"3255242","MEAN_MOTION_DDOT":"0.0000000000000","ECCENTRICITY":"0.00017690","RCS_SIZE":"LARGE","CLASSIFICATION_TYPE":"U","EPHEMERIS_TYPE":"0","ELEMENT_SET_NO":"999","COUNTRY_CODE":"US","OBJECT_ID":"2020-062BD","OBJECT_NAME":"STARLINK-1742","APOAPSIS":"548.442","NORAD_CAT_ID":"46376","DECAY_DATE":null,"MEAN_MOTION_DOT":"-0.00000292","LAUNCH_DATE":"2020-09-03","TLE_LINE2":"2 46376  53.0545 356.9444 0001769  59.9871 300.1293 15.06398834 74430","MEAN_ELEMENT_THEORY":"SGP4","EPOCH":"2021-12-31T09:10:45.777792","TIME_SYSTEM":"UTC","PERIOD":"95.592","SEMIMAJOR_AXIS":"6925.352","GP_ID":"192818433","TLE_LINE1":"1 46376U 20062BD  21365.38247428 -.00000292  00000-0 -67096-6 0  9990","BSTAR":"-0.00000067096000","MEAN_ANOMALY":"300.1293","REV_AT_EPOCH":"7443"},{"DECAY_DATE":null,"MEAN_MOTION_DOT":"0.00015554","LAUNCH_DATE":"2020-09-03","MEAN_ELEMENT_THEORY":"SGP4","TLE_LINE2":"2 46378  53.0533 342.9072 0000651  60.7704 299.3387 15.90963674 74611","NORAD_CAT_ID":"46378","OBJECT_NAME":"STARLINK-1751","APOAPSIS":"300.022","ELEMENT_SET_NO":"999","COUNTRY_CODE":"US","OBJECT_ID":"2020-062BF","MEAN_ANOMALY":"299.3387","REV_AT_EPOCH":"7461","PERIOD":"90.511","SEMIMAJOR_AXIS":"6677.722","BSTAR":"0.00005908400000","TLE_LINE1":"1 46378U 20062BF  21365.19899644  .00015554  11184-4  59084-4 0  9994","GP_ID":"192818683","TIME_SYSTEM":"UTC","EPOCH":"2021-12-31T04:46:33.292416","RA_OF_ASC_NODE":"342.9072","PERIAPSIS":"299.152","CENTER_NAME":"EARTH","ARG_OF_PERICENTER":"60.7704","REF_FRAME":"TEME","OBJECT_TYPE":"PAYLOAD","INCLINATION":"53.0533","SITE":"AFETR","EPHEMERIS_TYPE":"0","MEAN_MOTION_DDOT":"0.0000111840000","ECCENTRICITY":"0.00006510","RCS_SIZE":"LARGE","CLASSIFICATION_TYPE":"U","MEAN_MOTION":"15.90963674","FILE":"3255242"},{"INCLINATION":"53.0554","SITE":"AFETR","REF_FRAME":"TEME","ARG_OF_PERICENTER":"72.1472","OBJECT_TYPE":"PAYLOAD","CENTER_NAME":"EARTH","PERIAPSIS":"546.196","RA_OF_ASC_NODE":"21.1970","MEAN_MOTION":"15.06404612","FILE":"3255242","RCS_SIZE":"LARGE","MEAN_MOTION_DDOT":"0.0000000000000","ECCENTRICITY":"0.00014490","CLASSIFICATION_TYPE":"U","EPHEMERIS_TYPE":"0","ELEMENT_SET_NO":"999","OBJECT_ID":"2020-062BH","COUNTRY_CODE":"US","OBJECT_NAME":"STARLINK-1758","APOAPSIS":"548.203","NORAD_CAT_ID":"46380","MEAN_MOTION_DOT":"0.00002811","DECAY_DATE":null,"LAUNCH_DATE":"2020-09-03","MEAN_ELEMENT_THEORY":"SGP4","TLE_LINE2":"2 46380  53.0554  21.1970 0001449  72.1472 287.9675 15.06404612 74112","EPOCH":"2021-12-31T13:08:56.874336","TIME_SYSTEM":"UTC","PERIOD":"95.592","GP_ID":"192819935","TLE_LINE1":"1 46380U 20062BH  21365.54788049  .00002811  00000-0  20753-3 0  9995","BSTAR":"0.00020753000000","SEMIMAJOR_AXIS":"6925.334","REV_AT_EPOCH":"7411","MEAN_ANOMALY":"287.9675"},{"TIME_SYSTEM":"UTC","EPOCH":"2021-12-31T04:45:21.840480","REV_AT_EPOCH":"7441","MEAN_ANOMALY":"284.6488","BSTAR":"-0.00000018329000","TLE_LINE1":"1 46382U 20062BK  21365.19816945 -.00000284  00000-0 -18329-6 0  9998","GP_ID":"192820173","SEMIMAJOR_AXIS":"6925.334","PERIOD":"95.592","APOAPSIS":"548.280","OBJECT_NAME":"STARLINK-1769","OBJECT_ID":"2020-062BK","COUNTRY_CODE":"US","ELEMENT_SET_NO":"999","TLE_LINE2":"2 46382  53.0562 357.7841 0001562  75.4674 284.6488 15.06404892 74413","MEAN_ELEMENT_THEORY":"SGP4","LAUNCH_DATE":"2020-09-03","DECAY_DATE":null,"MEAN_MOTION_DOT":"-0.00000284","NORAD_CAT_ID":"46382","CLASSIFICATION_TYPE":"U","RCS_SIZE":"LARGE","ECCENTRICITY":"0.00015620","MEAN_MOTION_DDOT":"0.0000000000000","FILE":"3255242","MEAN_MOTION":"15.06404892","EPHEMERIS_TYPE":"0","OBJECT_TYPE":"PAYLOAD","ARG_OF_PERICENTER":"75.4674","REF_FRAME":"TEME","SITE":"AFETR","INCLINATION":"53.0562","RA_OF_ASC_NODE":"357.7841","PERIAPSIS":"546.117","CENTER_NAME":"EARTH"},{"NORAD_CAT_ID":"46383","MEAN_MOTION_DOT":"-0.00000907","DECAY_DATE":null,"LAUNCH_DATE":"2020-09-03","MEAN_ELEMENT_THEORY":"SGP4","TLE_LINE2":"2 46383  53.0558  41.3479 0001394  79.0642 281.0504 15.06398444 73829","ELEMENT_SET_NO":"999","OBJECT_ID":"2020-062BL","COUNTRY_CODE":"US","OBJECT_NAME":"STARLINK-1770","APOAPSIS":"548.184","PERIOD":"95.592","GP_ID":"192818934","TLE_LINE1":"1 46383U 20062BL  21365.51654618 -.00000907  00000-0 -42016-4 0  9992","BSTAR":"-0.00004201600000","SEMIMAJOR_AXIS":"6925.353","REV_AT_EPOCH":"7382","MEAN_ANOMALY":"281.0504","EPOCH":"2021-12-31T12:23:49.589952","TIME_SYSTEM":"UTC","CENTER_NAME":"EARTH","RA_OF_ASC_NODE":"41.3479","PERIAPSIS":"546.253","INCLINATION":"53.0558","SITE":"AFETR","REF_FRAME":"TEME","ARG_OF_PERICENTER":"79.0642","OBJECT_TYPE":"PAYLOAD","EPHEMERIS_TYPE":"0","MEAN_MOTION":"15.06398444","FILE":"3255242","RCS_SIZE":"LARGE","MEAN_MOTION_DDOT":"0.0000000000000","ECCENTRICITY":"0.00013940","CLASSIFICATION_TYPE":"U"}];
